NORAD_CAT_ID,OBJECT_NAME,OBJECT_TYPE,EPOCH,MEAN_MOTION,ECCENTRICITY,INCLINATION,RA_OF_ASC_NODE,ARG_OF_PERICENTER,MEAN_ANOMALY,BSTAR,MEAN_MOTION_DOT,MEAN_MOTION_DDOT,TLE_LINE0,TLE_LINE1,TLE_LINE2,SEMIMAJOR_AXIS,PERIOD,APOGEE,PERIGEE,DECAYED
53904.0,STARLINK-4787,PAYLOAD,2024-01-20 12:43:44,15.08838054,0.000127,53.2138,221.5055,99.7259,260.3877,4.3288e-05,4.01e-06,0.0,0 STARLINK-4787,1 53904U 22119U   24020.53037670  .00000401  00000-0  43288-4 0  9999,2 53904  53.2138 221.5055 0001270  99.7259 260.3877 15.08838054 74068,6917.886,95.438,540.63,538.873,0.0
53904.0,STARLINK-4787,PAYLOAD,2024-01-20 19:05:17,15.0883912,0.0001244,53.2147,220.316,99.9305,260.1827,8.7262e-05,1.101e-05,0.0,0 STARLINK-4787,1 53904U 22119U   24020.79533908  .00001101  00000-0  87262-4 0  9990,2 53904  53.2147 220.3160 0001244  99.9305 260.1827 15.08839120 73682,6917.883,95.438,540.609,538.887,0.0
53904.0,STARLINK-4787,PAYLOAD,2024-01-20 22:16:03,15.08841118,0.0001251,53.2148,219.7211,99.1244,260.989,9.7729e-05,1.268e-05,0.0,0 STARLINK-4787,1 53904U 22119U   24020.92781728  .00001268  00000-0  97729-4 0  9993,2 53904  53.2148 219.7211 0001251  99.1244 260.9890 15.08841118 74122,6917.877,95.437,540.607,538.877,0.0
53904.0,STARLINK-4787,PAYLOAD,2024-01-21 22:06:50,15.08846522,0.000127,53.2149,215.2602,101.7863,258.3272,7.4706e-05,9.01e-06,0.0,0 STARLINK-4787,1 53904U 22119U   24021.92141269  .00000901  00000-0  74706-4 0  9997,2 53904  53.2149 215.2602 0001270 101.7863 258.3272 15.08846522 74271,6917.86,95.437,540.604,538.847,0.0
53904.0,STARLINK-4787,PAYLOAD,2024-01-22 12:25:18,15.0883918,0.0001594,53.2151,212.5839,96.8725,263.2448,4.0913e-05,3.63e-06,0.0,0 STARLINK-4787,1 53904U 22119U   24022.51757976  .00000363  00000-0  40913-4 0  9996,2 53904  53.2151 212.5839 0001594  96.8725 263.2448 15.08839180 73941,6917.883,95.438,540.851,538.645,0.0
53904.0,STARLINK-4787,PAYLOAD,2024-01-22 18:46:51,15.08840274,0.0001181,53.2152,211.3941,88.3154,271.7974,2.3859e-05,9.2e-07,0.0,0 STARLINK-4787,1 53904U 22119U   24022.78253906  .00000092  00000-0  23859-4 0  9998,2 53904  53.2152 211.3941 0001181  88.3154 271.7974 15.08840274 74403,6917.88,95.438,540.562,538.928,0.0
53904.0,STARLINK-4787,PAYLOAD,2024-01-23 02:43:46,15.08841684,0.0001238,53.2149,209.9081,91.3423,268.7711,5.5044e-05,5.88e-06,0.0,0 STARLINK-4787,1 53904U 22119U   24023.11373665  .00000588  00000-0  55044-4 0  9992,2 53904  53.2149 209.9081 0001238  91.3423 268.7711 15.08841684 74459,6917.875,95.437,540.597,538.884,0.0
53904.0,STARLINK-4787,PAYLOAD,2024-01-23 15:26:51,15.08847751,0.000141,53.2153,207.5282,86.8177,273.2976,8.5292e-05,1.07e-05,0.0,0 STARLINK-4787,1 53904U 22119U   24023.64365293  .00001070  00000-0  85292-4 0  9993,2 53904  53.2153 207.5282 0001410  86.8177 273.2976 15.08847751 74116,6917.857,95.437,540.697,538.746,0.0
53904.0,STARLINK-4787,PAYLOAD,2024-01-23 21:48:23,15.08844675,0.0001081,53.2155,206.3392,99.8095,260.3019,0.00018308,2.627e-05,0.0,0 STARLINK-4787,1 53904U 22119U   24023.90860991  .00002627  00000-0  18308-3 0  9999,2 53904  53.2155 206.3392 0001081  99.8095 260.3019 15.08844675 74571,6917.866,95.437,540.479,538.983,0.0
53904.0,STARLINK-4787,PAYLOAD,2024-01-24 02:34:34,15.08827688,0.0001971,53.2163,205.4491,47.3341,312.7817,0.00012508,1.702e-05,0.0,0 STARLINK-4787,1 53904U 22119U   24024.10734652  .00001702  00000-0  12508-3 0  9995,2 53904  53.2163 205.4491 0001971  47.3341 312.7817 15.08827688 74180,6917.918,95.438,541.147,538.42,0.0
53904.0,STARLINK-4787,PAYLOAD,2024-01-24 13:42:16,15.08839044,0.0001362,53.2155,203.3656,88.6187,271.4961,5.9923e-05,6.66e-06,0.0,0 STARLINK-4787,1 53904U 22119U   24024.57102012  .00000666  00000-0  59923-4 0  9996,2 53904  53.2155 203.3656 0001362  88.6187 271.4961 15.08839044 74675,6917.883,95.438,540.691,538.806,0.0
53904.0,STARLINK-4787,PAYLOAD,2024-01-24 18:28:25,15.088414,0.000137,53.2143,202.4736,87.8414,272.2735,9.4837e-05,1.222e-05,0.0,0 STARLINK-4787,1 53904U 22119U   24024.76973839  .00001222  00000-0  94837-4 0  9992,2 53904  53.2143 202.4736 0001370  87.8414 272.2735 15.08841400 74288,6917.876,95.437,540.689,538.793,0.0
53904.0,STARLINK-4787,PAYLOAD,2024-01-24 21:39:11,15.08842828,0.0001336,53.2143,201.879,84.6795,275.4349,0.0001125,1.503e-05,0.0,0 STARLINK-4787,1 53904U 22119U   24024.90221766  .00001503  00000-0  11250-3 0  9992,2 53904  53.2143 201.8790 0001336  84.6795 275.4349 15.08842828 74720,6917.872,95.437,540.661,538.813,0.0
53904.0,STARLINK-4787,PAYLOAD,2024-01-24 23:14:34,15.08844846,0.000133,53.2142,201.5816,83.9199,276.1945,0.00014587,2.035e-05,0.0,0 STARLINK-4787,1 53904U 22119U   24024.96845688  .00002035  00000-0  14587-3 0  9990,2 53904  53.2142 201.5816 0001330  83.9199 276.1945 15.08844846 74732,6917.866,95.437,540.651,538.811,0.0
53904.0,STARLINK-4787,PAYLOAD,2024-01-25 18:19:12,15.08842276,0.0001351,53.2142,198.0126,86.3514,273.7633,0.00016193,2.29e-05,0.0,0 STARLINK-4787,1 53904U 22119U   24025.76333881  .00002290  00000-0  16193-3 0  9994,2 53904  53.2142 198.0126 0001351  86.3514 273.7633 15.08842276 74852,6917.873,95.437,540.673,538.804,0.0
53904.0,STARLINK-4787,PAYLOAD,2024-01-26 14:59:13,15.08844343,0.0001378,53.2144,194.1466,90.1862,269.9288,0.00021763,3.178e-05,0.0,0 STARLINK-4787,1 53904U 22119U   24026.62445783  .00003178  00000-0  21763-3 0  9990,2 53904  53.2144 194.1466 0001378  90.1862 269.9288 15.08844343 74980,6917.867,95.437,540.685,538.779,0.0
53904.0,STARLINK-4787,PAYLOAD,2024-01-26 18:09:59,15.08846552,0.0001363,53.2146,193.5519,90.0155,270.0993,0.00022679,3.324e-05,0.0,0 STARLINK-4787,1 53904U 22119U   24026.75693643  .00003324  00000-0  22679-3 0  9994,2 53904  53.2146 193.5519 0001363  90.0155 270.0993 15.08846552 74588,6917.86,95.437,540.668,538.782,0.0
53904.0,STARLINK-4787,PAYLOAD,2024-01-27 14:50:01,15.08818927,0.0001563,53.2164,189.685,78.7655,281.3513,0.00045669,6.984e-05,0.0,0 STARLINK-4787,1 53904U 22119U   24027.61807054  .00006984  00000-0  45669-3 0  9992,2 53904  53.2164 189.6850 0001563  78.7655 281.3513 15.08818927 75132,6917.945,95.439,540.891,538.729,0.0
53904.0,STARLINK-4787,PAYLOAD,2024-01-27 19:36:11,15.08797409,0.0001668,53.2175,188.7937,76.6323,283.4855,0.00063907,9.886e-05,0.0,0 STARLINK-4787,1 53904U 22119U   24027.81679865  .00009886  00000-0  63907-3 0  9990,2 53904  53.2175 188.7937 0001668  76.6323 283.4855 15.08797409 74744,6918.011,95.44,541.029,538.722,0.0
53904.0,STARLINK-4787,PAYLOAD,2024-01-28 09:54:38,15.08801792,0.0001641,53.2178,186.1201,91.1889,268.9291,0.00052747,8.108e-05,0.0,0 STARLINK-4787,1 53904U 22119U   24028.41294954  .00008108  00000-0  52747-3 0  9995,2 53904  53.2178 186.1201 0001641  91.1889 268.9291 15.08801792 74836,6917.997,95.44,540.997,538.727,0.0
53904.0,STARLINK-4787,PAYLOAD,2024-01-28 14:40:47,15.08844961,0.0001355,53.2176,185.2285,84.1309,275.9838,-4.4986e-05,-1.004e-05,0.0,0 STARLINK-4787,1 53904U 22119U   24028.61166490 -.00001004  00000-0 -44986-4 0  9997,2 53904  53.2176 185.2285 0001355  84.1309 275.9838 15.08844961 75287,6917.865,95.437,540.668,538.793,0.0
53904.0,STARLINK-4787,PAYLOAD,2024-01-28 19:26:57,15.08811266,0.0001632,53.2175,184.3353,87.3972,272.7207,0.00054353,8.366e-05,0.0,0 STARLINK-4787,1 53904U 22119U   24028.81039127  .00008366  00000-0  54353-3 0  9999,2 53904  53.2175 184.3353 0001632  87.3972 272.7207 15.08811266 75312,6917.968,95.439,540.962,538.704,0.0
53904.0,STARLINK-4787,PAYLOAD,2024-01-29 09:45:25,15.08838891,0.0001452,53.217,181.659,79.8396,280.276,0.00012295,1.669e-05,0.0,0 STARLINK-4787,1 53904U 22119U   24029.40654492  .00001669  00000-0  12295-3 0  9991,2 53904  53.2170 181.6590 0001452  79.8396 280.2760 15.08838891 74989,6917.884,95.438,540.753,538.744,0.0
53904.0,STARLINK-4787,PAYLOAD,2024-01-30 14:22:22,15.08842514,0.0001376,53.2166,176.3053,82.3762,277.7386,5.0292e-05,5.13e-06,0.0,0 STARLINK-4787,1 53904U 22119U   24030.59886579  .00000513  00000-0  50292-4 0  9993,2 53904  53.2166 176.3053 0001376  82.3762 277.7386 15.08842514 75589,6917.873,95.437,540.69,538.786,0.0
53904.0,STARLINK-4787,PAYLOAD,2024-01-30 15:57:45,15.08842942,0.0001386,53.2168,176.008,81.7279,278.387,5.1386e-05,5.3e-06,0.0,0 STARLINK-4787,1 53904U 22119U   24030.66510538  .00000530  00000-0  51386-4 0  9994,2 53904  53.2168 176.0080 0001386  81.7279 278.3870 15.08842942 75170,6917.871,95.437,540.695,538.778,0.0
53904.0,STARLINK-4787,PAYLOAD,2024-01-31 12:37:46,15.08838808,0.0001366,53.2168,172.1426,91.9345,268.1804,4.6335e-05,4.5e-06,0.0,0 STARLINK-4787,1 53904U 22119U   24031.52622742  .00000450  00000-0  46335-4 0  9990,2 53904  53.2168 172.1426 0001366  91.9345 268.1804 15.08838808 75727,6917.884,95.438,540.694,538.804,0.0
53904.0,STARLINK-4787,PAYLOAD,2024-01-31 18:59:18,15.08842844,0.0001472,53.2171,170.9527,91.7705,268.3456,7.2604e-05,8.68e-06,0.0,0 STARLINK-4787,1 53904U 22119U   24031.79118418  .00000868  00000-0  72604-4 0  9990,2 53904  53.2171 170.9527 0001472  91.7705 268.3456 15.08842844 75343,6917.872,95.437,540.755,538.718,0.0
53904.0,STARLINK-4787,PAYLOAD,2024-02-01 12:28:33,15.08804635,0.0001621,53.2166,167.6795,96.2024,263.9153,0.00053902,8.293e-05,0.0,0 STARLINK-4787,1 53904U 22119U   24032.51983421  .00008293  00000-0  53902-3 0  9994,2 53904  53.2166 167.6795 0001621  96.2024 263.9153 15.08804635 75876,6917.988,95.44,540.975,538.732,0.0
53904.0,STARLINK-4787,PAYLOAD,2024-02-01 18:50:05,15.08841611,0.0001509,53.2171,166.4911,93.3123,266.8041,7.0666e-05,8.37e-06,0.0,0 STARLINK-4787,1 53904U 22119U   24032.78478555  .00000837  00000-0  70666-4 0  9993,2 53904  53.2171 166.4911 0001509  93.3123 266.8041 15.08841611 75910,6917.875,95.437,540.784,538.697,0.0
53904.0,STARLINK-4787,PAYLOAD,2024-02-02 12:19:20,15.08835068,0.0001448,53.2175,163.2194,103.3012,256.8141,2.8769e-05,1.7e-06,0.0,0 STARLINK-4787,1 53904U 22119U   24033.51343150  .00000170  00000-0  28769-4 0  9994,2 53904  53.2175 163.2194 0001448 103.3012 256.8141 15.08835068 75608,6917.895,95.438,540.762,538.759,0.0
